tree_id,spc_common,health,zipcode,status,latitude,longitude
180683,red maple,Fair,11375,Alive,40.72309177,-73.84421522
200540,pin oak,Fair,11357,Alive,40.79411067,-73.81867946
204026,honeylocust,Good,11211,Alive,40.71758074,-73.9366077
204337,honeylocust,Good,11211,Alive,40.71353749,-73.93445616
189565,American linden,Good,11215,Alive,40.66677776,-73.97597938
190422,honeylocust,Good,10023,Alive,40.77004563,-73.98494997
190426,honeylocust,Good,10023,Alive,40.77020969,-73.98533807
208649,American linden,Good,10019,Alive,40.76272385,-73.98729652
209610,honeylocust,Good,10305,Alive,40.59657931,-74.07625483
192755,London planetree,Fair,11223,Alive,40.58635725,-73.96974394
203719,London planetree,Good,11105,Alive,40.78242823,-73.91117077
203726,London planetree,Poor,11105,Alive,40.78173511,-73.91201957
195202,London planetree,Fair,10308,Alive,40.55710259,-74.16267038
189465,London planetree,Good,11205,Alive,40.69473314,-73.96821054
192998,London planetree,Fair,11212,Alive,40.6643174,-73.92113023
189834,honeylocust,Good,11205,Alive,40.69331418,-73.96760066
204208,ginkgo,Fair,11214,Alive,40.59378755,-73.9915968
161339,honeylocust,Good,11226,Alive,40.64878769,-73.96452447
187311,honeylocust,Fair,11373,Alive,40.73764622,-73.86529992
208201,ginkgo,Good,11205,Alive,40.69149917,-73.97258754
193093,honeylocust,Good,11215,Alive,40.66123875,-73.98588944
193310,honeylocust,Good,10021,Alive,40.77217148,-73.96045571
199760,willow oak,Fair,10024,Alive,40.7820872,-73.98096428
204325,sycamore maple,Good,10306,Alive,40.56882124,-74.1385634
189700,willow oak,Good,11217,Alive,40.67483919,-73.97218377
205044,Amur maple,Good,11214,Alive,40.59493629,-73.98917143
192942,London planetree,Good,11415,Alive,40.70653352,-73.82499155
195265,London planetree,Good,11230,Alive,40.61190461,-73.97042748
201555,honeylocust,Good,10002,Alive,40.72180744,-73.98982976
208407,honeylocust,Good,11385,Alive,40.70804012,-73.91549691
189164,honeylocust,Good,11215,Alive,40.66882647,-73.98670282
184375,honeylocust,Good,10457,Alive,40.84794708,-73.89338226
187056,honeylocust,Good,10023,Alive,40.77039613,-73.9816267
187058,honeylocust,Good,10023,Alive,40.77022715,-73.98121826
178659,honeylocust,Good,10305,Alive,40.5881073,-74.08667827
190423,honeylocust,Good,10023,Alive,40.77008698,-73.98504779
190425,honeylocust,Good,10023,Alive,40.77018061,-73.98526929
204202,London planetree,Fair,10306,Alive,40.56882517,-74.13906215
201494,London planetree,Good,10306,Alive,40.57807406,-74.11474624
208346,London planetree,Good,10024,Alive,40.78258674,-73.97484011
181710,willow oak,Good,11235,Alive,40.5752053,-73.9524669
178382,London planetree,Fair,10009,Alive,40.7337165,-73.97705764
193690,London planetree,Good,11230,Alive,40.61366258,-73.97453014
196089,London planetree,Good,11415,Alive,40.70404652,-73.82768034
191988,willow oak,Good,10012,Alive,40.72663958,-73.99936836
203720,London planetree,Good,11105,Alive,40.78233983,-73.91127902
189339,London planetree,Good,11205,Alive,40.69528068,-73.96637972
208230,London planetree,Fair,10024,Alive,40.7821811,-73.97238977
204413,willow oak,Good,11214,Alive,40.59393169,-73.9938007
161193,willow oak,Good,10314,Alive,40.58584952,-74.14804001
196132,London planetree,Good,11204,Alive,40.61293798,-73.97671635
196223,London planetree,Fair,11415,Alive,40.71490997,-73.82720922
192888,London planetree,Fair,11229,Alive,40.61003477,-73.94863403
192890,London planetree,Good,11229,Alive,40.60991608,-73.94861133
197978,pin oak,Good,11365,Alive,40.74068684,-73.80826026
178601,pin oak,Fair,10312,Alive,40.53211313,-74.1561806
184317,pin oak,Good,10458,Alive,40.85677447,-73.89097861
184031,red maple,Good,10457,Alive,40.85091786,-73.90356058
200225,pin oak,Good,10024,Alive,40.78993607,-73.97721169
208974,red maple,Good,10306,Alive,40.56103243,-74.10653494
198146,red maple,Good,10312,Alive,40.53936939,-74.19255287
194505,,Unknown,11370,Dead,40.75902778,-73.88725059
198121,pin oak,Fair,10016,Alive,40.74503399,-73.98253015
195252,pin oak,Good,10011,Alive,40.73599985,-73.99985935
204355,hedge maple,Good,10306,Alive,40.56785426,-74.13823191
205759,pin oak,Good,11370,Alive,40.76686765,-73.89540541
201654,pin oak,Good,11231,Alive,40.68194327,-74.00410729
198514,pin oak,Good,10025,Alive,40.80230109,-73.9620798
203334,London planetree,Fair,11372,Alive,40.75088939,-73.88730078
200628,London planetree,Good,11357,Alive,40.793138,-73.81946649
186888,London planetree,Fair,10467,Alive,40.87343706,-73.88088627
196373,London planetree,Good,10002,Alive,40.71680539,-73.99157275
209441,American elm,Poor,10453,Alive,40.84637583,-73.91763219
206435,sycamore maple,Good,11235,Alive,40.59078486,-73.96280534
196080,London planetree,Good,11415,Alive,40.7049445,-73.82819499
203759,London planetree,Good,11105,Alive,40.78075207,-73.9120953
190359,London planetree,Fair,10021,Alive,40.77222448,-73.95894426
209909,American elm,Good,10457,Alive,40.84810623,-73.90688618
180295,American elm,Good,10023,Alive,40.77013009,-73.9829175
208373,London planetree,Good,10024,Alive,40.7816172,-73.97558535
196205,London planetree,Good,11204,Alive,40.61288064,-73.97682018
192086,London planetree,Good,11209,Alive,40.62140476,-74.03492843
203550,London planetree,Good,11375,Alive,40.71316969,-73.85444599
203718,London planetree,Good,11105,Alive,40.78254676,-73.91102561
208832,London planetree,Poor,11205,Alive,40.6922784,-73.96142265
193183,Amur maple,Good,11375,Alive,40.71703231,-73.83829722
203577,London planetree,Good,11375,Alive,40.71247961,-73.85501988
179477,London planetree,Poor,11215,Alive,40.6682313,-73.98073049
203386,London planetree,Good,11375,Alive,40.7126411,-73.85213797
189537,London planetree,Good,11215,Alive,40.6690395,-73.97325313
196130,London planetree,Good,11204,Alive,40.61324054,-73.9772179
200676,London planetree,Good,11230,Alive,40.62480756,-73.96044298
206326,London planetree,Good,11370,Alive,40.76679523,-73.89249205
204118,London planetree,Good,10306,Alive,40.56872513,-74.14007849
192653,London planetree,Good,11223,Alive,40.58802014,-73.96632142
203592,London planetree,Good,11375,Alive,40.71338389,-73.8544597
189338,London planetree,Good,11205,Alive,40.69520579,-73.96636478
208240,London planetree,Good,10024,Alive,40.78233867,-73.97276286
208247,American elm,Fair,10024,Alive,40.7825057,-73.97308773
204203,London planetree,Fair,10306,Alive,40.56873093,-74.13912874
203385,London planetree,Good,11375,Alive,40.71269661,-73.85210323
196372,London planetree,Good,10002,Alive,40.71688341,-73.99153287
192889,London planetree,Good,11229,Alive,40.60998452,-73.94862442
203760,London planetree,Good,11105,Alive,40.78081459,-73.91201937
203767,London planetree,Good,11105,Alive,40.78159709,-73.91106905
208458,London planetree,Good,11358,Alive,40.76762905,-73.79811408
209919,London planetree,Good,10027,Alive,40.80881155,-73.96331506
198296,London planetree,Good,11203,Alive,40.64649652,-73.92576589
204169,London planetree,Fair,10306,Alive,40.56736217,-74.13481836
208338,London planetree,Fair,10024,Alive,40.78283422,-73.97469909
196131,London planetree,Good,11204,Alive,40.61298057,-73.97678695
196374,London planetree,Good,10002,Alive,40.71669718,-73.99162805
208463,ash,Good,10019,Alive,40.76312607,-73.98935258
201661,London planetree,Good,11375,Alive,40.71498666,-73.85066148
203769,London planetree,Good,11105,Alive,40.78178061,-73.91084617
208456,London planetree,Good,11358,Alive,40.76760837,-73.7978701
209921,London planetree,Good,10027,Alive,40.80874458,-73.96340334
189840,Amur maple,Good,11355,Alive,40.74830311,-73.82657765
203887,willow oak,Good,10025,Alive,40.80572583,-73.96071917
200654,Amur maple,Fair,11355,Alive,40.75465185,-73.83342753
196440,American elm,Fair,10115,Alive,40.81114538,-73.96412322
204246,hedge maple,Good,10306,Alive,40.5671037,-74.13565414
193014,pin oak,Good,11212,Alive,40.66522204,-73.92220308
180707,pin oak,Fair,11210,Alive,40.62700131,-73.95649259
198230,red maple,Good,10312,Alive,40.5393701,-74.19216109
192814,pin oak,Good,10014,Alive,40.73998079,-74.00504966
179828,red maple,Good,10002,Alive,40.72180184,-73.99119881
196765,pin oak,Fair,11415,Alive,40.70649325,-73.82961562
178599,pin oak,Good,10312,Alive,40.53195766,-74.15632856
208229,pin oak,Good,10024,Alive,40.78220389,-73.97237311
189313,pin oak,Good,11374,Alive,40.72877985,-73.85600425
208876,pin oak,Good,11105,Alive,40.77399973,-73.91633969
189570,pin oak,Fair,11215,Alive,40.66701232,-73.97646441
170988,honeylocust,Good,11691,Alive,40.60866168,-73.767642
178783,honeylocust,Fair,11237,Alive,40.69775112,-73.90933909
175693,ginkgo,Good,10016,Alive,40.74829709,-73.98065645
190540,honeylocust,Good,10025,Alive,40.79238702,-73.97423449
140722,ginkgo,Good,11238,Alive,40.68767857,-73.96764605
161235,honeylocust,Fair,11691,Alive,40.59626688,-73.77234286
161242,honeylocust,Poor,11691,Alive,40.59683648,-73.77245394
186060,honeylocust,Good,10458,Alive,40.85791814,-73.89340631
180891,ginkgo,Good,11368,Alive,40.739991,-73.86526993
183381,honeylocust,Good,11413,Alive,40.66362636,-73.75365462
166440,ginkgo,Good,11374,Alive,40.72186915,-73.86525671
196492,pin oak,Good,11229,Alive,40.60430523,-73.93644715
134320,honeylocust,Good,11429,Alive,40.703218,-73.73473543
168348,honeylocust,Good,11238,Alive,40.67591256,-73.96350468
201658,pin oak,Good,11375,Alive,40.715253,-73.85049293
204165,hedge maple,Good,10306,Alive,40.56744833,-74.13410014
186817,pin oak,Good,11370,Alive,40.77079674,-73.89080443
198164,pin oak,Good,11355,Alive,40.75195241,-73.82895529
196627,pin oak,Fair,11415,Alive,40.71219318,-73.82549632
208395,pin oak,Good,10024,Alive,40.78080395,-73.97613836
191733,pin oak,Good,11415,Alive,40.71175384,-73.82794408
209913,pin oak,Good,10027,Alive,40.80907709,-73.96312072
194656,pin oak,Fair,10308,Alive,40.5602591,-74.16264761
192702,red maple,Good,11204,Alive,40.61799206,-73.99518627
191162,ginkgo,Good,11231,Alive,40.68162051,-74.00147075
191248,honeylocust,Poor,11226,Alive,40.65015942,-73.95571955
189708,honeylocust,Good,11217,Alive,40.67524604,-73.97323052
201682,honeylocust,Good,10470,Alive,40.90339978,-73.84936673
195151,American linden,Good,11369,Alive,40.764166,-73.87162804
173925,honeylocust,Good,11204,Alive,40.61891585,-73.99026972
178756,honeylocust,Good,10023,Alive,40.77688357,-73.97980287
163280,honeylocust,Good,10075,Alive,40.77277225,-73.9553271
190420,honeylocust,Good,10023,Alive,40.76996266,-73.98475372
190154,honeylocust,Good,11106,Alive,40.76206839,-73.92575935
191273,honeylocust,Fair,10010,Alive,40.73943979,-73.98436755
178435,ginkgo,Fair,11421,Alive,40.69062557,-73.86702522
180307,ginkgo,Good,11693,Alive,40.58401171,-73.81814429
179475,honeylocust,Fair,11215,Alive,40.66831143,-73.98089638
189401,honeylocust,Fair,11217,Alive,40.67498646,-73.9720122
176850,ginkgo,Fair,10003,Alive,40.73570804,-73.98261517
191197,ginkgo,Good,11415,Alive,40.71266167,-73.83049495
183942,honeylocust,Fair,10457,Alive,40.85392218,-73.9013742
178779,ginkgo,Poor,11218,Alive,40.64072805,-73.97579406
189593,ginkgo,Good,11215,Alive,40.67179945,-73.97521359
200590,ginkgo,Good,11365,Alive,40.73275126,-73.78793925
200604,honeylocust,Good,11355,Alive,40.75395021,-73.83485946
180266,honeylocust,Good,10023,Alive,40.77033272,-73.98369364
206337,American linden,Good,11201,Alive,40.68584614,-73.99547033
206338,American linden,Good,11201,Alive,40.68581011,-73.99536155
190393,honeylocust,Good,10021,Alive,40.76955939,-73.95993924
201558,honeylocust,Good,10002,Alive,40.72173136,-73.98958224
205787,ginkgo,Fair,10023,Alive,40.78010688,-73.98322688
205970,ginkgo,Good,11370,Alive,40.7681009,-73.89434096
179537,red maple,Fair,11358,Alive,40.76280482,-73.78633372
179476,pin oak,Good,11215,Alive,40.66826409,-73.98079837
189590,ginkgo,Fair,11215,Alive,40.67201868,-73.97503084
191351,honeylocust,Good,11375,Alive,40.71171868,-73.85446422
208767,honeylocust,Good,10065,Alive,40.76332189,-73.96121439
205734,honeylocust,Good,10023,Alive,40.78061205,-73.98564087
201486,honeylocust,Good,11694,Alive,40.57619607,-73.85018599
203326,honeylocust,Good,11372,Alive,40.74996589,-73.88713449
179994,honeylocust,Good,11222,Alive,40.72549844,-73.94980363
178583,American linden,Good,11421,Alive,40.68844787,-73.86658672
187232,ginkgo,Good,11217,Alive,40.68591967,-73.97626031
179887,American linden,Good,11222,Alive,40.72856769,-73.95177312
200381,honeylocust,Good,10314,Alive,40.59666002,-74.16220431
198290,honeylocust,Good,11354,Alive,40.76980427,-73.82714606
190087,honeylocust,Good,11106,Alive,40.7631618,-73.92810436
190421,honeylocust,Good,10023,Alive,40.77000454,-73.98485279
181446,ginkgo,Good,11235,Alive,40.57887248,-73.94378432
199062,crab apple,Good,10023,Alive,40.77038983,-73.98213047
200398,honeylocust,Good,10314,Alive,40.59784149,-74.16242863
179942,American linden,Good,11222,Alive,40.72262725,-73.94879371
189351,honeylocust,Good,11215,Alive,40.67099868,-73.97620526
196020,honeylocust,Good,10468,Alive,40.86998754,-73.90162551
205829,honeylocust,Good,11234,Alive,40.63056031,-73.9241548
208820,honeylocust,Good,10065,Alive,40.76436461,-73.95955458
178606,honeylocust,Good,10016,Alive,40.74780138,-73.97857966
200673,London planetree,Good,11230,Alive,40.6244214,-73.96036845
186501,honeylocust,Good,10458,Alive,40.85705393,-73.88745706
197897,American linden,Good,11223,Alive,40.60961592,-73.96487682
199051,crab apple,Good,10023,Alive,40.76996828,-73.98212294
200406,honeylocust,Good,10314,Alive,40.59837239,-74.16253586
189459,honeylocust,Good,11205,Alive,40.69543462,-73.96835285
189460,honeylocust,Good,11205,Alive,40.69528272,-73.96832203
189709,honeylocust,Good,11217,Alive,40.67530269,-73.9733763
208761,honeylocust,Good,10065,Alive,40.76307992,-73.96064456
190395,honeylocust,Good,10021,Alive,40.76963905,-73.96012717
187234,ginkgo,Good,11217,Alive,40.68606021,-73.97628864
205785,ginkgo,Good,10023,Alive,40.78017187,-73.9833793
201410,ginkgo,Good,10002,Alive,40.72311463,-73.9903307
208760,ginkgo,Good,10065,Alive,40.76299829,-73.96045231
208763,honeylocust,Good,10065,Alive,40.76313613,-73.96077693
189626,ginkgo,Good,11217,Alive,40.67490334,-73.97505728
190394,honeylocust,Good,10021,Alive,40.76960162,-73.96003888
200471,ginkgo,Good,10036,Alive,40.75757044,-73.98285452
179834,ginkgo,Good,10002,Alive,40.72206573,-73.99110017
180251,honeylocust,Good,10023,Alive,40.76964206,-73.98370686
209063,honeylocust,Fair,10306,Alive,40.55918278,-74.10593025
201590,honeylocust,Fair,11694,Alive,40.58211738,-73.82864619
187054,honeylocust,Good,10023,Alive,40.77046435,-73.98179161
201811,honeylocust,Fair,11694,Alive,40.58306474,-73.82538142
208863,honeylocust,Good,11205,Alive,40.69153074,-73.96062867
195995,honeylocust,Fair,10016,Alive,40.74486653,-73.98598251
190386,honeylocust,Good,10021,Alive,40.76916627,-73.95901189
208819,honeylocust,Good,10065,Alive,40.76432442,-73.95945923
200697,American linden,Good,11222,Alive,40.72286388,-73.94759301
189599,American linden,Good,11215,Alive,40.66972377,-73.97268165
187229,honeylocust,Fair,10017,Alive,40.75235028,-73.97971637
192892,ginkgo,Good,11229,Alive,40.60963578,-73.94855771
206381,ginkgo,Good,10010,Alive,40.73815531,-73.98054734
187061,honeylocust,Good,10023,Alive,40.77005069,-73.98079175
189365,honeylocust,Good,11217,Alive,40.67672539,-73.97265212
161340,honeylocust,Good,11226,Alive,40.64872085,-73.96469573
204224,honeylocust,Good,11211,Alive,40.71308988,-73.93895706
190435,honeylocust,Good,10023,Alive,40.77055862,-73.9861635
193092,honeylocust,Good,11215,Alive,40.66116853,-73.98577305
209331,honeylocust,Good,11237,Alive,40.70233782,-73.91521777
200439,ginkgo,Good,10038,Alive,40.71269558,-73.99769319
180252,honeylocust,Fair,10023,Alive,40.76961476,-73.98364215
180434,ginkgo,Good,11230,Alive,40.62037645,-73.95847826
209045,honeylocust,Good,11232,Alive,40.6635718,-73.99457015
201593,honeylocust,Good,11694,Alive,40.58221487,-73.82831042
193069,honeylocust,Good,11229,Alive,40.60955151,-73.94574108
189243,American linden,Good,11217,Alive,40.67586569,-73.97279
180516,ginkgo,Poor,11385,Alive,40.70099719,-73.89270307
208860,honeylocust,Good,11205,Alive,40.69124695,-73.96056701
204033,honeylocust,Good,10025,Alive,40.79880049,-73.96897589
208410,ginkgo,Good,11385,Alive,40.70871281,-73.91480707
170023,honeylocust,Good,10048,Alive,40.71007644,-74.01226648
189583,ginkgo,Good,11205,Alive,40.69577266,-73.97068954
189500,honeylocust,Good,11215,Alive,40.67249783,-73.97235367
189902,ginkgo,Good,11217,Alive,40.67688868,-73.97371851
187294,honeylocust,Good,10026,Alive,40.80278452,-73.95251716
192893,ginkgo,Good,11229,Alive,40.60949889,-73.94853152
206382,honeylocust,Good,10010,Alive,40.73824263,-73.98048352
189249,American linden,Good,11217,Alive,40.67561105,-73.97213743
189251,ginkgo,Good,11217,Alive,40.67551014,-73.97187885
201817,American linden,Poor,11694,Alive,40.58344881,-73.82405773
201819,American linden,Poor,11694,Alive,40.58350299,-73.82387099
204025,honeylocust,Good,11211,Alive,40.71763375,-73.93663139
193395,honeylocust,Good,11372,Alive,40.75182477,-73.88841976
210541,American linden,Good,11222,Alive,40.72566319,-73.94694312
184749,London planetree,Fair,10457,Alive,40.85153001,-73.89377521
185678,American elm,Good,10453,Alive,40.85811921,-73.9021878
182059,London planetree,Fair,11101,Alive,40.74222798,-73.92783662
182170,London planetree,Good,11219,Alive,40.63461036,-73.99982555
161371,London planetree,Good,11691,Alive,40.61095304,-73.7701119
195488,Amur maple,Fair,10308,Alive,40.55832021,-74.16176844
184924,American elm,Poor,10457,Alive,40.84983561,-73.90281035
192294,London planetree,Good,11412,Alive,40.69414597,-73.75058098
188761,London planetree,Good,11105,Alive,40.78343726,-73.91459447
189940,London planetree,Good,11105,Alive,40.78183619,-73.91206578
163875,London planetree,Fair,11235,Alive,40.58453676,-73.93097316
171588,London planetree,Good,10314,Alive,40.61544133,-74.16442172
181473,London planetree,Good,10024,Alive,40.78755732,-73.97055355
179494,American elm,Fair,11375,Alive,40.7379165,-73.84892202
179651,London planetree,Fair,11375,Alive,40.7375311,-73.84843343
188661,London planetree,Good,11358,Alive,40.76509665,-73.79585205
188386,London planetree,Good,11105,Alive,40.77997369,-73.91049677
192037,London planetree,Good,11209,Alive,40.62103615,-74.03391951
190115,willow oak,Good,10024,Alive,40.78603546,-73.97136276
119244,silver maple,Good,11413,Alive,40.66243464,-73.75219521
121659,silver maple,Good,10314,Alive,40.60249347,-74.11737184
143237,silver maple,Good,10306,Alive,40.57845116,-74.09984423
132105,silver maple,Fair,11218,Alive,40.64218648,-73.97711679
118769,Turkish hazelnut,Fair,10002,Alive,40.71975914,-73.98660086
151575,silver maple,Good,11374,Alive,40.71947082,-73.86006187
143026,silver maple,Fair,11413,Alive,40.67335166,-73.75326962
165029,silver maple,Good,11361,Alive,40.76629559,-73.77954308
157920,black cherry,Good,11364,Alive,40.75690759,-73.75653466
131562,silver maple,Good,11375,Alive,40.7341053,-73.85375548
153022,silver maple,Good,11432,Alive,40.72499955,-73.78625396
162964,silver maple,Good,10314,Alive,40.58871258,-74.15250829
208525,,Unknown,10019,Stump,40.76458056,-73.98974808
159649,eastern redcedar,Good,11356,Alive,40.7853317,-73.84269904
164329,silver maple,Good,11354,Alive,40.76843137,-73.8082915
176111,eastern redcedar,Good,11226,Alive,40.639637,-73.95696074
178894,black cherry,Good,11237,Alive,40.69791922,-73.90830664
162178,silver maple,Good,11230,Alive,40.61242516,-73.96444166
73302,silver maple,Good,11372,Alive,40.75237429,-73.8932499
191083,silver maple,Good,11415,Alive,40.71266475,-73.8302881
163225,honeylocust,Good,11374,Alive,40.73433314,-73.85778669
184448,honeylocust,Good,10458,Alive,40.8560007,-73.89284982
203468,honeylocust,Good,11375,Alive,40.71760215,-73.84915064
183939,honeylocust,Fair,10457,Alive,40.85358319,-73.90149295
183941,honeylocust,Good,10457,Alive,40.85378584,-73.90142196
191268,ginkgo,Good,10010,Alive,40.739211,-73.98381722
201655,American linden,Good,11231,Alive,40.68210684,-74.00402821
189587,ginkgo,Good,11215,Alive,40.67222771,-73.9748566
180306,ginkgo,Good,11693,Alive,40.58396282,-73.81811317
198018,ginkgo,Poor,10017,Alive,40.75019786,-73.97469992
198020,ginkgo,Poor,10017,Alive,40.75041366,-73.97454407
164685,Norway maple,Fair,10457,Alive,40.84765784,-73.89371113
170671,tulip-poplar,Good,11691,Alive,40.60693099,-73.764123
162756,Norway maple,Good,10452,Alive,40.83230633,-73.92817071
179127,tulip-poplar,Good,11375,Alive,40.72099944,-73.84236505
172273,Norway maple,Poor,11385,Alive,40.70871171,-73.90408214
186754,Norway maple,Good,10467,Alive,40.87567747,-73.88153803
178264,Norway maple,Good,11215,Alive,40.67491692,-73.97883273
178434,Norway maple,Good,11362,Alive,40.76129482,-73.73567337
164151,Norway maple,Good,11216,Alive,40.67187546,-73.95509839
179202,Norway maple,Poor,11375,Alive,40.72128023,-73.83966278
175792,Norway maple,Good,11370,Alive,40.75792848,-73.89426076
175281,Norway maple,Good,10019,Alive,40.76814466,-73.99240025
155427,sawtooth oak,Good,11249,Alive,40.71233878,-73.96594651
176428,Norway maple,Good,11415,Alive,40.70453556,-73.83213744
172782,Norway maple,Good,11226,Alive,40.63956769,-73.96500315
157533,Norway maple,Poor,10461,Alive,40.85488535,-73.85369905
198291,honeylocust,Fair,11354,Alive,40.76982331,-73.82703698
200363,ginkgo,Good,10036,Alive,40.75689625,-73.98317757
183936,honeylocust,Good,10457,Alive,40.85334856,-73.9015736
203805,ginkgo,Good,10025,Alive,40.79952467,-73.971644
204158,honeylocust,Good,10025,Alive,40.79962299,-73.96965382
208787,ginkgo,Good,10065,Alive,40.76412273,-73.96117932
189469,honeylocust,Good,11205,Alive,40.69346634,-73.96795356
189618,honeylocust,Good,11205,Alive,40.69383699,-73.96593251
205830,honeylocust,Good,11234,Alive,40.63046564,-73.92414493
184319,honeylocust,Good,10458,Alive,40.85637186,-73.89088874
184168,ginkgo,Good,10458,Alive,40.85737328,-73.8926941
155673,honeylocust,Good,10023,Alive,40.77913077,-73.98090356
201933,honeylocust,Good,11694,Alive,40.58142172,-73.82465289
208457,London planetree,Good,11358,Alive,40.76761445,-73.79794186
208555,London planetree,Good,11205,Alive,40.69123029,-73.96541768
208866,London planetree,Fair,11205,Alive,40.69194056,-73.96071087
163101,Norway maple,Fair,11102,Alive,40.76782574,-73.9308659
175099,tulip-poplar,Fair,11226,Alive,40.64459956,-73.96285445
135634,Norway maple,Fair,11361,Alive,40.77048653,-73.77418742
147189,Norway maple,Fair,11413,Alive,40.67524172,-73.74810119
166718,Norway maple,Good,11427,Alive,40.73287782,-73.7546477
138199,Norway maple,Poor,11216,Alive,40.67673979,-73.94652237
166477,Norway maple,Good,11375,Alive,40.71449877,-73.83329646
178550,Norway maple,Good,10026,Alive,40.80690345,-73.95739877
185627,Norway maple,Good,11370,Alive,40.76932328,-73.8906477
185670,Norway maple,Good,10457,Alive,40.85070575,-73.88695045
183686,London planetree,Good,11415,Alive,40.70556938,-73.82133897
192223,London planetree,Good,10306,Alive,40.57461702,-74.12680328
220914,,Unknown,10016,Dead,40.74529871,-73.97827071
178385,London planetree,Fair,10009,Alive,40.73357762,-73.97672526
178387,London planetree,Good,10009,Alive,40.73346807,-73.97646308
186324,London planetree,Fair,10458,Alive,40.85805147,-73.88533325
191989,willow oak,Good,10012,Alive,40.72666328,-73.99941653
203721,London planetree,Good,11105,Alive,40.78227353,-73.91136021
189332,London planetree,Fair,11205,Alive,40.69452585,-73.96619451
198109,American elm,Good,11414,Alive,40.65353429,-73.84344477
209105,London planetree,Poor,10452,Alive,40.84571911,-73.91819074
189551,London planetree,Good,11205,Alive,40.69468728,-73.97022537
208371,London planetree,Good,10024,Alive,40.7816867,-73.97549554
177285,Sophora,Good,11207,Alive,40.67763435,-73.89058092
191378,honeylocust,Good,10010,Alive,40.73974645,-73.9850924
146736,swamp white oak,Good,11207,Alive,40.68280728,-73.90979496
147983,swamp white oak,Good,11233,Alive,40.68111502,-73.9114682
133750,swamp white oak,Fair,11234,Alive,40.63440847,-73.92809354
172058,Chinese fringetree,Good,11375,Alive,40.72403951,-73.83980528
175959,swamp white oak,Good,11226,Alive,40.65189344,-73.96023354
184715,swamp white oak,Good,10458,Alive,40.85663542,-73.89013512
158050,swamp white oak,Good,10306,Alive,40.57237894,-74.08885094
147397,swamp white oak,Good,11216,Alive,40.67441563,-73.95314143
184563,red maple,Good,10457,Alive,40.84744348,-73.89566027
159658,southern magnolia,Good,11206,Alive,40.70378287,-73.94425849
173394,swamp white oak,Good,11211,Alive,40.70744575,-73.95201546
185008,swamp white oak,Good,10458,Alive,40.85912362,-73.89424406
176563,swamp white oak,Fair,11226,Alive,40.65364723,-73.95912524
170024,honeylocust,Good,10048,Alive,40.71011368,-74.01235235
186382,Sophora,Fair,10457,Alive,40.8494875,-73.89261605
175704,Sophora,Good,10016,Alive,40.74791179,-73.98052056
185163,sweetgum,Fair,11692,Alive,40.59061304,-73.79683634
185164,sweetgum,Fair,11692,Alive,40.590643,-73.79673994
165625,Sophora,Good,11222,Alive,40.72606121,-73.94815262
181202,Sophora,Good,11238,Alive,40.67607533,-73.95725929
183359,Sophora,Good,11216,Alive,40.67640772,-73.95581738
145055,Sophora,Poor,10013,Alive,40.71751014,-73.99597274
167230,Sophora,Fair,11374,Alive,40.72224466,-73.86131975
178930,Sophora,Good,11385,Alive,40.70687246,-73.90344945
180333,Sophora,Good,11101,Alive,40.74040845,-73.92842895
172663,Sophora,Fair,11691,Alive,40.59570647,-73.74664284
208791,honeylocust,Good,10065,Alive,40.76395531,-73.96078214
208793,honeylocust,Good,10065,Alive,40.76382569,-73.96047463
194260,honeylocust,Good,10002,Alive,40.7206881,-73.98224174
184166,ginkgo,Good,10458,Alive,40.857482,-73.89295364
188408,Callery pear,Good,11372,Alive,40.74912139,-73.88962284
165046,Callery pear,Good,10312,Alive,40.55017691,-74.18409536
194919,Callery pear,Good,11230,Alive,40.61227657,-73.97144407
200201,Callery pear,Good,10314,Alive,40.58868167,-74.18913181
200210,Callery pear,Good,10314,Alive,40.58804692,-74.18811275
181351,Callery pear,Good,11105,Alive,40.77817309,-73.90396581
174172,Callery pear,Fair,10305,Alive,40.58451588,-74.08802746
189839,Callery pear,Good,11355,Alive,40.74831191,-73.82669147
189403,Callery pear,Fair,10027,Alive,40.80754134,-73.95861206
210535,honeylocust,Good,10457,Alive,40.84272939,-73.89970654
120819,swamp white oak,Fair,10011,Alive,40.74797175,-74.00705779
163121,swamp white oak,Good,11215,Alive,40.67232211,-73.98687389
163122,swamp white oak,Good,11215,Alive,40.67236842,-73.98683519
181988,scarlet oak,Fair,11230,Alive,40.62335909,-73.95630455
175957,swamp white oak,Poor,11226,Alive,40.65173426,-73.9602033
163721,swamp white oak,Poor,11694,Alive,40.57030076,-73.86052984
163722,swamp white oak,Poor,11694,Alive,40.57035358,-73.86056009
179765,scarlet oak,Good,11210,Alive,40.63745394,-73.95382789
149749,swamp white oak,Good,11222,Alive,40.73617912,-73.95234583
171159,swamp white oak,Good,11215,Alive,40.67179932,-73.98398918
179530,scarlet oak,Good,11230,Alive,40.62775076,-73.95962942
196477,scarlet oak,Good,11229,Alive,40.60327057,-73.93529399
183944,honeylocust,Good,10457,Alive,40.85424737,-73.90126028
186502,honeylocust,Good,10458,Alive,40.85696595,-73.8875335
199052,crab apple,Good,10023,Alive,40.76996863,-73.98208864
205036,honeylocust,Good,11214,Alive,40.59406603,-73.99007878
208762,honeylocust,Good,10065,Alive,40.76310829,-73.96071138
180435,ginkgo,Fair,11385,Alive,40.70095558,-73.8918285
184561,Atlantic white cedar,Good,10457,Alive,40.84754857,-73.89560728
191999,honeylocust,Fair,11356,Alive,40.78326889,-73.83996684
209062,honeylocust,Fair,10306,Alive,40.55912312,-74.10598289
203313,black oak,Good,11214,Alive,40.59447845,-73.98622844
170507,Japanese zelkova,Good,10280,Alive,40.70807232,-74.01779961
192803,Japanese zelkova,Good,10014,Alive,40.73951749,-74.00396884
199737,Japanese zelkova,Poor,11230,Alive,40.62051591,-73.95874411
208218,honeylocust,Good,11205,Alive,40.69025667,-73.97234135
187260,American linden,Good,10026,Alive,40.80402101,-73.95281041
156710,Sophora,Good,10128,Alive,40.78281017,-73.95150745
175313,Sophora,Fair,11226,Alive,40.65017866,-73.95962391
163815,Sophora,Good,10009,Alive,40.7226696,-73.97718111
188530,Sophora,Good,11372,Alive,40.75013519,-73.89095085
178804,sweetgum,Good,11218,Alive,40.64054291,-73.97750284
175294,Sophora,Good,10019,Alive,40.76726396,-73.99030242
184820,Sophora,Good,10468,Alive,40.85845785,-73.90160792
192393,Sophora,Poor,11415,Alive,40.70830057,-73.82844596
165000,sweetgum,Good,10312,Alive,40.54960722,-74.18440182
163896,Sophora,Good,11216,Alive,40.67404279,-73.95395422
156127,Sophora,Good,11692,Alive,40.5924681,-73.79713579
204212,ginkgo,Good,11214,Alive,40.59354536,-73.99184925
178415,honeylocust,Good,11207,Alive,40.67813083,-73.89650861
187057,honeylocust,Good,10023,Alive,40.77036254,-73.98154552
190383,American linden,Fair,10021,Alive,40.77123388,-73.95966713
190208,honeylocust,Good,11385,Alive,40.71149979,-73.90753082
210539,American linden,Fair,11222,Alive,40.72528947,-73.946732
190433,honeylocust,Fair,10023,Alive,40.77047459,-73.98596471
176350,honeylocust,Good,10010,Alive,40.73616366,-73.98067313
196606,honeylocust,Good,10024,Alive,40.80732247,-73.96719944
162814,Sophora,Fair,10009,Alive,40.72569708,-73.97909807
188754,Sophora,Good,11220,Alive,40.64205589,-74.00236598
169991,Sophora,Good,11226,Alive,40.64673764,-73.95123356
184564,red maple,Good,10457,Alive,40.847282,-73.89574171
181198,Sophora,Good,11238,Alive,40.67625398,-73.95798142
208989,American linden,Good,11105,Alive,40.7770893,-73.91769088
204209,ginkgo,Poor,11214,Alive,40.59370116,-73.99168684
173021,ginkgo,Fair,11691,Alive,40.59969829,-73.75622313
190203,honeylocust,Good,11106,Alive,40.76422556,-73.92975138
200680,honeylocust,Good,11355,Alive,40.75498147,-73.83427783
201818,American linden,Poor,11694,Alive,40.5834737,-73.82397193
204024,honeylocust,Good,11211,Alive,40.71794872,-73.93677211
193394,honeylocust,Good,11372,Alive,40.75188675,-73.88843106
195249,ginkgo,Good,10011,Alive,40.73588436,-73.9995854
208919,honeylocust,Good,11105,Alive,40.77679762,-73.91694035
190437,honeylocust,Good,10023,Alive,40.77066826,-73.98642287
208200,ginkgo,Good,11205,Alive,40.69154585,-73.97259679
209557,honeylocust,Good,10453,Alive,40.84669493,-73.91603248
182847,ginkgo,Fair,11206,Alive,40.69544412,-73.94799785
210642,honeylocust,Good,10019,Alive,40.7665429,-73.98637067
153586,Sophora,Good,11218,Alive,40.64360575,-73.96683229
171066,white oak,Good,11226,Alive,40.6493897,-73.95835615
184051,Sophora,Good,10458,Alive,40.8563235,-73.88672874
171519,white oak,Good,10305,Alive,40.58283323,-74.08651136
176343,,Unknown,11226,Stump,40.63787921,-73.95830423
198323,sweetgum,Good,10312,Alive,40.54093888,-74.18923615
158851,sweetgum,Good,11211,Alive,40.71724309,-73.94544886
195970,sweetgum,Good,10028,Alive,40.77774504,-73.96095697
197287,Sophora,Good,10456,Alive,40.83327795,-73.90690109
183602,Sophora,Good,11105,Alive,40.76879797,-73.90442392
